HULIANWANG DIGUI-134    
1 67242U 25311G   26011.25360558  .00000015  00000+0  12991-3 0  9997
2 67242  50.0054 330.8988 0006693 317.6177  42.4204 13.90194662  2270
HULIANWANG DIGUI-135    
1 67243U 25311H   26011.25566017  .00000004  00000+0  12040-3 0  9999
2 67243  50.0041 330.9064 0007914 320.1166  39.9151 13.90183670  2276
HULIANWANG DIGUI-136    
1 67244U 25311J   26011.25146358  .00000005  00000+0  12176-3 0  9993
2 67244  50.0113 330.9006 0006838 326.4960  33.5505 13.90229555  2274
CZ-8A R/B               
1 67245U 25311K   26011.29273241 -.00000178  00000+0 -11405-4 0  9998
2 67245  50.0040 328.4420 0088946 138.5116 222.2589 14.12609441  2316
FENGYUN 4C              
1 67246U 25312A   26011.26234250 -.00000307  00000+0  00000+0 0  9991
2 67246   0.0825 245.8474 0002742  40.8956  51.5504  1.00270747   203
CZ-3B R/B               
1 67247U 25312B   26010.83943041  .00182137  16991-6  57591-3 0  9994
2 67247  28.4178 328.3428 7216532 188.7028 143.7075  2.42574309   360
2025-313A               
1 67248U 25313A   26011.25196773  .00002029  00000+0  20639-3 0  9996
2 67248  97.5637  87.7184 0280449 120.7214 242.1941 14.66784551  2018
2025-313B               
1 67249U 25313B   26011.26192541  .00005313  00000+0  40717-3 0  9995
2 67249  97.5324  87.7912 0297714 125.0486 237.9042 14.73168477  2029
2025-313C               
1 67250U 25313C   26011.22693259  .00024094  00000+0  22468-2 0  9994
2 67250  97.6366  88.1808 0163310 135.3618 226.0882 14.84570565  2031
2025-313D               
1 67251U 25313D   26011.25409082  .00003619  00000+0  31705-3 0  9992
2 67251  97.5880  88.1957 0152253 127.9503 233.5586 14.88723652  2047
2025-313E               
1 67252U 25313E   26011.29104203  .00011845  00000+0  52685-3 0  9994
2 67252  97.4116  88.5461 0010806 169.4236 190.7229 15.21592815  2090
2025-313F               
1 67253U 25313F   26011.23988890  .00067077  00000+0  68573-3 0  9992
2 67253  97.1034  88.5397 0010265 188.7625 171.3457 15.64760210  2125
