CCSDS_OMM_VERS = 2.0
CREATION_DATE  = 
ORIGINATOR     = 

OBJECT_NAME    = HULIANWANG DIGUI-134
OBJECT_ID      = 2025-311G
CENTER_NAME    = EARTH
REF_FRAME      = TEME
TIME_SYSTEM    = UTC
MEAN_ELEMENT_THEORY = SGP/SGP4

EPOCH          = 2026-01-11T06:05:11.522112
MEAN_MOTION    = 13.90194662
ECCENTRICITY   = .00066935
INCLINATION    = 50.0054
RA_OF_ASC_NODE = 330.8988
ARG_OF_PERICENTER = 317.6177
MEAN_ANOMALY   = 42.4204

EPHEMERIS_TYPE = 0
CLASSIFICATION_TYPE = U
NORAD_CAT_ID   = 67242
ELEMENT_SET_NO = 999
REV_AT_EPOCH   = 227
BSTAR          = .1299107E-3
MEAN_MOTION_DOT = .15E-6
MEAN_MOTION_DDOT = 0

CCSDS_OMM_VERS = 2.0
CREATION_DATE  = 
ORIGINATOR     = 

OBJECT_NAME    = HULIANWANG DIGUI-135
OBJECT_ID      = 2025-311H
CENTER_NAME    = EARTH
REF_FRAME      = TEME
TIME_SYSTEM    = UTC
MEAN_ELEMENT_THEORY = SGP/SGP4

EPOCH          = 2026-01-11T06:08:09.038688
MEAN_MOTION    = 13.90183670
ECCENTRICITY   = .00079145
INCLINATION    = 50.0041
RA_OF_ASC_NODE = 330.9064
ARG_OF_PERICENTER = 320.1166
MEAN_ANOMALY   = 39.9151

EPHEMERIS_TYPE = 0
CLASSIFICATION_TYPE = U
NORAD_CAT_ID   = 67243
ELEMENT_SET_NO = 999
REV_AT_EPOCH   = 227
BSTAR          = .12040278E-3
MEAN_MOTION_DOT = .4E-7
MEAN_MOTION_DDOT = 0

CCSDS_OMM_VERS = 2.0
CREATION_DATE  = 
ORIGINATOR     = 

OBJECT_NAME    = HULIANWANG DIGUI-136
OBJECT_ID      = 2025-311J
CENTER_NAME    = EARTH
REF_FRAME      = TEME
TIME_SYSTEM    = UTC
MEAN_ELEMENT_THEORY = SGP/SGP4

EPOCH          = 2026-01-11T06:02:06.453312
MEAN_MOTION    = 13.90229555
ECCENTRICITY   = .00068385
INCLINATION    = 50.0113
RA_OF_ASC_NODE = 330.9006
ARG_OF_PERICENTER = 326.4960
MEAN_ANOMALY   = 33.5505

EPHEMERIS_TYPE = 0
CLASSIFICATION_TYPE = U
NORAD_CAT_ID   = 67244
ELEMENT_SET_NO = 999
REV_AT_EPOCH   = 227
BSTAR          = .12176192E-3
MEAN_MOTION_DOT = .5E-7
MEAN_MOTION_DDOT = 0

CCSDS_OMM_VERS = 2.0
CREATION_DATE  = 
ORIGINATOR     = 

OBJECT_NAME    = CZ-8A R/B
OBJECT_ID      = 2025-311K
CENTER_NAME    = EARTH
REF_FRAME      = TEME
TIME_SYSTEM    = UTC
MEAN_ELEMENT_THEORY = SGP/SGP4

EPOCH          = 2026-01-11T07:01:32.080224
MEAN_MOTION    = 14.12609441
ECCENTRICITY   = .00889463
INCLINATION    = 50.0040
RA_OF_ASC_NODE = 328.4420
ARG_OF_PERICENTER = 138.5116
MEAN_ANOMALY   = 222.2589

EPHEMERIS_TYPE = 0
CLASSIFICATION_TYPE = U
NORAD_CAT_ID   = 67245
ELEMENT_SET_NO = 999
REV_AT_EPOCH   = 231
BSTAR          = -.11404744E-4
MEAN_MOTION_DOT = -.178E-5
MEAN_MOTION_DDOT = 0

CCSDS_OMM_VERS = 2.0
CREATION_DATE  = 
ORIGINATOR     = 

OBJECT_NAME    = FENGYUN 4C
OBJECT_ID      = 2025-312A
CENTER_NAME    = EARTH
REF_FRAME      = TEME
TIME_SYSTEM    = UTC
MEAN_ELEMENT_THEORY = SGP/SGP4

EPOCH          = 2026-01-11T06:17:46.392000
MEAN_MOTION    = 1.00270747
ECCENTRICITY   = .00027423
INCLINATION    = 0.0825
RA_OF_ASC_NODE = 245.8474
ARG_OF_PERICENTER = 40.8956
MEAN_ANOMALY   = 51.5504

EPHEMERIS_TYPE = 0
CLASSIFICATION_TYPE = U
NORAD_CAT_ID   = 67246
ELEMENT_SET_NO = 999
REV_AT_EPOCH   = 20
BSTAR          = 0
MEAN_MOTION_DOT = -.307E-5
MEAN_MOTION_DDOT = 0

CCSDS_OMM_VERS = 2.0
CREATION_DATE  = 
ORIGINATOR     = 

OBJECT_NAME    = CZ-3B R/B
OBJECT_ID      = 2025-312B
CENTER_NAME    = EARTH
REF_FRAME      = TEME
TIME_SYSTEM    = UTC
MEAN_ELEMENT_THEORY = SGP/SGP4

EPOCH          = 2026-01-10T20:08:46.787424
MEAN_MOTION    = 2.42574309
ECCENTRICITY   = .72165323
INCLINATION    = 28.4178
RA_OF_ASC_NODE = 328.3428
ARG_OF_PERICENTER = 188.7028
MEAN_ANOMALY   = 143.7075

EPHEMERIS_TYPE = 0
CLASSIFICATION_TYPE = U
NORAD_CAT_ID   = 67247
ELEMENT_SET_NO = 999
REV_AT_EPOCH   = 36
BSTAR          = .57591131E-3
MEAN_MOTION_DOT = .182137E-2
MEAN_MOTION_DDOT = .169912E-6

CCSDS_OMM_VERS = 2.0
CREATION_DATE  = 
ORIGINATOR     = 

OBJECT_NAME    = 2025-313A
OBJECT_ID      = 2025-313A
CENTER_NAME    = EARTH
REF_FRAME      = TEME
TIME_SYSTEM    = UTC
MEAN_ELEMENT_THEORY = SGP/SGP4

EPOCH          = 2026-01-11T06:02:50.011872
MEAN_MOTION    = 14.66784551
ECCENTRICITY   = .02804497
INCLINATION    = 97.5637
RA_OF_ASC_NODE = 87.7184
ARG_OF_PERICENTER = 120.7214
MEAN_ANOMALY   = 242.1941

EPHEMERIS_TYPE = 0
CLASSIFICATION_TYPE = U
NORAD_CAT_ID   = 67248
ELEMENT_SET_NO = 999
REV_AT_EPOCH   = 201
BSTAR          = .20638986E-3
MEAN_MOTION_DOT = .2029E-4
MEAN_MOTION_DDOT = 0

CCSDS_OMM_VERS = 2.0
CREATION_DATE  = 
ORIGINATOR     = 

OBJECT_NAME    = 2025-313B
OBJECT_ID      = 2025-313B
CENTER_NAME    = EARTH
REF_FRAME      = TEME
TIME_SYSTEM    = UTC
MEAN_ELEMENT_THEORY = SGP/SGP4

EPOCH          = 2026-01-11T06:17:10.355424
MEAN_MOTION    = 14.73168477
ECCENTRICITY   = .0297714
INCLINATION    = 97.5324
RA_OF_ASC_NODE = 87.7912
ARG_OF_PERICENTER = 125.0486
MEAN_ANOMALY   = 237.9042

EPHEMERIS_TYPE = 0
CLASSIFICATION_TYPE = U
NORAD_CAT_ID   = 67249
ELEMENT_SET_NO = 999
REV_AT_EPOCH   = 202
BSTAR          = .40716799E-3
MEAN_MOTION_DOT = .5313E-4
MEAN_MOTION_DDOT = 0

CCSDS_OMM_VERS = 2.0
CREATION_DATE  = 
ORIGINATOR     = 

OBJECT_NAME    = 2025-313C
OBJECT_ID      = 2025-313C
CENTER_NAME    = EARTH
REF_FRAME      = TEME
TIME_SYSTEM    = UTC
MEAN_ELEMENT_THEORY = SGP/SGP4

EPOCH          = 2026-01-11T05:26:46.975776
MEAN_MOTION    = 14.84570565
ECCENTRICITY   = .01633107
INCLINATION    = 97.6366
RA_OF_ASC_NODE = 88.1808
ARG_OF_PERICENTER = 135.3618
MEAN_ANOMALY   = 226.0882

EPHEMERIS_TYPE = 0
CLASSIFICATION_TYPE = U
NORAD_CAT_ID   = 67250
ELEMENT_SET_NO = 999
REV_AT_EPOCH   = 203
BSTAR          = .22468032E-2
MEAN_MOTION_DOT = .24094E-3
MEAN_MOTION_DDOT = 0

CCSDS_OMM_VERS = 2.0
CREATION_DATE  = 
ORIGINATOR     = 

OBJECT_NAME    = 2025-313D
OBJECT_ID      = 2025-313D
CENTER_NAME    = EARTH
REF_FRAME      = TEME
TIME_SYSTEM    = UTC
MEAN_ELEMENT_THEORY = SGP/SGP4

EPOCH          = 2026-01-11T06:05:53.446848
MEAN_MOTION    = 14.88723652
ECCENTRICITY   = .0152253
INCLINATION    = 97.5880
RA_OF_ASC_NODE = 88.1957
ARG_OF_PERICENTER = 127.9503
MEAN_ANOMALY   = 233.5586

EPHEMERIS_TYPE = 0
CLASSIFICATION_TYPE = U
NORAD_CAT_ID   = 67251
ELEMENT_SET_NO = 999
REV_AT_EPOCH   = 204
BSTAR          = .31705493E-3
MEAN_MOTION_DOT = .3619E-4
MEAN_MOTION_DDOT = 0

CCSDS_OMM_VERS = 2.0
CREATION_DATE  = 
ORIGINATOR     = 

OBJECT_NAME    = 2025-313E
OBJECT_ID      = 2025-313E
CENTER_NAME    = EARTH
REF_FRAME      = TEME
TIME_SYSTEM    = UTC
MEAN_ELEMENT_THEORY = SGP/SGP4

EPOCH          = 2026-01-11T06:59:06.031392
MEAN_MOTION    = 15.21592815
ECCENTRICITY   = .00108063
INCLINATION    = 97.4116
RA_OF_ASC_NODE = 88.5461
ARG_OF_PERICENTER = 169.4236
MEAN_ANOMALY   = 190.7229

EPHEMERIS_TYPE = 0
CLASSIFICATION_TYPE = U
NORAD_CAT_ID   = 67252
ELEMENT_SET_NO = 999
REV_AT_EPOCH   = 209
BSTAR          = .52685042E-3
MEAN_MOTION_DOT = .11845E-3
MEAN_MOTION_DDOT = 0

CCSDS_OMM_VERS = 2.0
CREATION_DATE  = 
ORIGINATOR     = 

OBJECT_NAME    = 2025-313F
OBJECT_ID      = 2025-313F
CENTER_NAME    = EARTH
REF_FRAME      = TEME
TIME_SYSTEM    = UTC
MEAN_ELEMENT_THEORY = SGP/SGP4

EPOCH          = 2026-01-11T05:45:26.400960
MEAN_MOTION    = 15.64760210
ECCENTRICITY   = .00102658
INCLINATION    = 97.1034
RA_OF_ASC_NODE = 88.5397
ARG_OF_PERICENTER = 188.7625
MEAN_ANOMALY   = 171.3457

EPHEMERIS_TYPE = 0
CLASSIFICATION_TYPE = U
NORAD_CAT_ID   = 67253
ELEMENT_SET_NO = 999
REV_AT_EPOCH   = 212
BSTAR          = .68572549E-3
MEAN_MOTION_DOT = .67077E-3
MEAN_MOTION_DDOT = 0

